ELYSIUM STAR 2 & LFF    
1 43760U 18099C   24258.74714917  .00178195  00000+0  44106-2 0  9995
2 43760  97.5056 327.5138 0004802 288.6049  71.4675 15.39718914316945
